{
 "generated_at": "2026-06-28T08:21:54Z",
 "sources": [
  {
   "name": "CelesTrak",
   "url": "https://celestrak.org/NORAD/elements/",
   "license": "frei verfügbar; Attribution. Ursprünglich USSPACECOM/Space-Track."
  },
  {
   "name": "GCAT (J. McDowell, planet4589.org)",
   "url": "https://planet4589.org/space/gcat/",
   "license": "CC-BY 4.0"
  }
 ],
 "satellites": [
  {
   "norad": 41335,
   "name": "SENTINEL-3A",
   "intl": "2016-011A",
   "group": "resource",
   "gcat": {
    "class": "C",
    "category": "IMG",
    "owner": "COPERN/ESA",
    "state": "I-EU"
   },
   "omm": {
    "OBJECT_NAME": "SENTINEL-3A",
    "OBJECT_ID": "2016-011A",
    "EPOCH": "2026-06-27T22:42:52.438464",
    "MEAN_MOTION": 14.26735411,
    "ECCENTRICITY": 0.00014355,
    "INCLINATION": 98.6246,
    "RA_OF_ASC_NODE": 246.1754,
    "ARG_OF_PERICENTER": 96.4602,
    "MEAN_ANOMALY": 263.6742,
    "EPHEMERIS_TYPE": 0,
    "CLASSIFICATION_TYPE": "U",
    "NORAD_CAT_ID": 41335,
    "ELEMENT_SET_NO": 999,
    "REV_AT_EPOCH": 53959,
    "BSTAR": 0.000057482565,
    "MEAN_MOTION_DOT": 9.5e-7,
    "MEAN_MOTION_DDOT": 0
   }
  },
  {
   "norad": 43437,
   "name": "SENTINEL-3B",
   "intl": "2018-039A",
   "group": "resource",
   "gcat": {
    "class": "C",
    "category": "IMG",
    "owner": "COPERN/ESA",
    "state": "I-EU"
   },
   "omm": {
    "OBJECT_NAME": "SENTINEL-3B",
    "OBJECT_ID": "2018-039A",
    "EPOCH": "2026-06-27T22:04:12.073152",
    "MEAN_MOTION": 14.26737598,
    "ECCENTRICITY": 0.00007684,
    "INCLINATION": 98.6246,
    "RA_OF_ASC_NODE": 246.2978,
    "ARG_OF_PERICENTER": 109.683,
    "MEAN_ANOMALY": 250.4433,
    "EPHEMERIS_TYPE": 0,
    "CLASSIFICATION_TYPE": "U",
    "NORAD_CAT_ID": 43437,
    "ELEMENT_SET_NO": 999,
    "REV_AT_EPOCH": 42565,
    "BSTAR": 0.000059665854,
    "MEAN_MOTION_DOT": 0.00000101,
    "MEAN_MOTION_DDOT": 0
   }
  },
  {
   "norad": 42969,
   "name": "SENTINEL-5P",
   "intl": "2017-064A",
   "group": "resource",
   "gcat": {
    "class": "C",
    "category": "IMG",
    "owner": "COPERN/ESA",
    "state": "I-EU"
   },
   "omm": {
    "OBJECT_NAME": "SENTINEL-5P",
    "OBJECT_ID": "2017-064A",
    "EPOCH": "2026-06-27T20:17:10.544352",
    "MEAN_MOTION": 14.19520652,
    "ECCENTRICITY": 0.00010308,
    "INCLINATION": 98.7926,
    "RA_OF_ASC_NODE": 120.9008,
    "ARG_OF_PERICENTER": 90.8726,
    "MEAN_ANOMALY": 269.2568,
    "EPHEMERIS_TYPE": 0,
    "CLASSIFICATION_TYPE": "U",
    "NORAD_CAT_ID": 42969,
    "ELEMENT_SET_NO": 999,
    "REV_AT_EPOCH": 45107,
    "BSTAR": 0.000035363048,
    "MEAN_MOTION_DOT": 3e-7,
    "MEAN_MOTION_DDOT": 0
   }
  },
  {
   "norad": 46984,
   "name": "SENTINEL-6A",
   "intl": "2020-086A",
   "group": "resource",
   "gcat": {
    "class": "C",
    "category": "EOSCI",
    "owner": "COPERN/ESA",
    "state": "I-EU"
   },
   "omm": {
    "OBJECT_NAME": "SENTINEL-6A",
    "OBJECT_ID": "2020-086A",
    "EPOCH": "2026-06-27T20:38:20.767776",
    "MEAN_MOTION": 12.80929981,
    "ECCENTRICITY": 0.00078451,
    "INCLINATION": 66.0409,
    "RA_OF_ASC_NODE": 112.8854,
    "ARG_OF_PERICENTER": 269.9918,
    "MEAN_ANOMALY": 90.0198,
    "EPHEMERIS_TYPE": 0,
    "CLASSIFICATION_TYPE": "U",
    "NORAD_CAT_ID": 46984,
    "ELEMENT_SET_NO": 999,
    "REV_AT_EPOCH": 26169,
    "BSTAR": -0.000067788511,
    "MEAN_MOTION_DOT": -7.7e-7,
    "MEAN_MOTION_DDOT": 0
   }
  },
  {
   "norad": 66514,
   "name": "SENTINEL-6B",
   "intl": "2025-264A",
   "group": "resource",
   "gcat": {
    "class": "C",
    "category": "EOSCI",
    "owner": "COPERN/ESA",
    "state": "I-EU"
   },
   "omm": {
    "OBJECT_NAME": "SENTINEL-6B",
    "OBJECT_ID": "2025-264A",
    "EPOCH": "2026-06-27T20:38:50.827200",
    "MEAN_MOTION": 12.80929988,
    "ECCENTRICITY": 0.0007934,
    "INCLINATION": 66.0409,
    "RA_OF_ASC_NODE": 113.0107,
    "ARG_OF_PERICENTER": 268.9235,
    "MEAN_ANOMALY": 91.0871,
    "EPHEMERIS_TYPE": 0,
    "CLASSIFICATION_TYPE": "U",
    "NORAD_CAT_ID": 66514,
    "ELEMENT_SET_NO": 999,
    "REV_AT_EPOCH": 2853,
    "BSTAR": -0.000070237736,
    "MEAN_MOTION_DOT": -7.7e-7,
    "MEAN_MOTION_DDOT": 0
   }
  },
  {
   "norad": 28220,
   "name": "SHIYAN-1 (SY-1)",
   "intl": "2004-012A",
   "group": "resource",
   "gcat": {
    "class": null,
    "category": null,
    "owner": null,
    "state": null
   },
   "omm": {
    "OBJECT_NAME": "SHIYAN-1 (SY-1)",
    "OBJECT_ID": "2004-012A",
    "EPOCH": "2026-06-27T22:44:23.624160",
    "MEAN_MOTION": 15.34029995,
    "ECCENTRICITY": 0.00046599,
    "INCLINATION": 97.8697,
    "RA_OF_ASC_NODE": 257.7161,
    "ARG_OF_PERICENTER": 353.3982,
    "MEAN_ANOMALY": 6.7197,
    "EPHEMERIS_TYPE": 0,
    "CLASSIFICATION_TYPE": "U",
    "NORAD_CAT_ID": 28220,
    "ELEMENT_SET_NO": 999,
    "REV_AT_EPOCH": 21274,
    "BSTAR": 0.0004235591,
    "MEAN_MOTION_DOT": 0.00013873,
    "MEAN_MOTION_DDOT": 0
   }
  },
  {
   "norad": 28893,
   "name": "SINAH 1",
   "intl": "2005-043D",
   "group": "resource",
   "gcat": {
    "class": null,
    "category": null,
    "owner": null,
    "state": null
   },
   "omm": {
    "OBJECT_NAME": "SINAH 1",
    "OBJECT_ID": "2005-043D",
    "EPOCH": "2026-06-27T22:04:54.994944",
    "MEAN_MOTION": 14.64164599,
    "ECCENTRICITY": 0.00133253,
    "INCLINATION": 98.2872,
    "RA_OF_ASC_NODE": 313.3059,
    "ARG_OF_PERICENTER": 239.9907,
    "MEAN_ANOMALY": 119.9973,
    "EPHEMERIS_TYPE": 0,
    "CLASSIFICATION_TYPE": "U",
    "NORAD_CAT_ID": 28893,
    "ELEMENT_SET_NO": 999,
    "REV_AT_EPOCH": 10209,
    "BSTAR": 0.000071550558,
    "MEAN_MOTION_DOT": 0.00000327,
    "MEAN_MOTION_DDOT": 0
   }
  },
  {
   "norad": 39418,
   "name": "SKYSAT-A",
   "intl": "2013-066C",
   "group": "resource",
   "gcat": {
    "class": "B",
    "category": "IMG",
    "owner": "SKYBOX",
    "state": "US"
   },
   "omm": {
    "OBJECT_NAME": "SKYSAT-A",
    "OBJECT_ID": "2013-066C",
    "EPOCH": "2026-06-27T15:22:32.401056",
    "MEAN_MOTION": 15.13027728,
    "ECCENTRICITY": 0.0019644,
    "INCLINATION": 97.3811,
    "RA_OF_ASC_NODE": 227.7046,
    "ARG_OF_PERICENTER": 278.4995,
    "MEAN_ANOMALY": 81.401,
    "EPHEMERIS_TYPE": 0,
    "CLASSIFICATION_TYPE": "U",
    "NORAD_CAT_ID": 39418,
    "ELEMENT_SET_NO": 999,
    "REV_AT_EPOCH": 69006,
    "BSTAR": 0.00015023881,
    "MEAN_MOTION_DOT": 0.00002601,
    "MEAN_MOTION_DDOT": 0
   }
  },
  {
   "norad": 40072,
   "name": "SKYSAT-B",
   "intl": "2014-037D",
   "group": "resource",
   "gcat": {
    "class": "B",
    "category": "IMG",
    "owner": "SKYBOX",
    "state": "US"
   },
   "omm": {
    "OBJECT_NAME": "SKYSAT-B",
    "OBJECT_ID": "2014-037D",
    "EPOCH": "2026-06-27T19:36:12.269088",
    "MEAN_MOTION": 14.88053149,
    "ECCENTRICITY": 0.00043001,
    "INCLINATION": 98.3842,
    "RA_OF_ASC_NODE": 138.3879,
    "ARG_OF_PERICENTER": 236.1098,
    "MEAN_ANOMALY": 123.9708,
    "EPHEMERIS_TYPE": 0,
    "CLASSIFICATION_TYPE": "U",
    "NORAD_CAT_ID": 40072,
    "ELEMENT_SET_NO": 999,
    "REV_AT_EPOCH": 64754,
    "BSTAR": 0.00014450588,
    "MEAN_MOTION_DOT": 0.00001266,
    "MEAN_MOTION_DDOT": 0
   }
  },
  {
   "norad": 41601,
   "name": "SKYSAT-C1",
   "intl": "2016-040C",
   "group": "resource",
   "gcat": {
    "class": "B",
    "category": "IMG",
    "owner": "TBELLA",
    "state": "US"
   },
   "omm": {
    "OBJECT_NAME": "SKYSAT-C1",
    "OBJECT_ID": "2016-040C",
    "EPOCH": "2026-06-27T19:59:00.069216",
    "MEAN_MOTION": 15.36476123,
    "ECCENTRICITY": 0.00023925,
    "INCLINATION": 96.9563,
    "RA_OF_ASC_NODE": 209.976,
    "ARG_OF_PERICENTER": 36.3056,
    "MEAN_ANOMALY": 323.8351,
    "EPHEMERIS_TYPE": 0,
    "CLASSIFICATION_TYPE": "U",
    "NORAD_CAT_ID": 41601,
    "ELEMENT_SET_NO": 999,
    "REV_AT_EPOCH": 55950,
    "BSTAR": 0.00025672433,
    "MEAN_MOTION_DOT": 0.00009064,
    "MEAN_MOTION_DDOT": 0
   }
  }
 ]
}
