SHIYAN-1 (SY-1)         
1 28220U 04012A   26178.94749565  .00013873  00000+0  42356-3 0  9998
2 28220  97.8697 257.7161 0004659 353.3982   6.7197 15.34029995212741
SINAH 1                 
1 28893U 05043D   26178.92008096  .00000327  00000+0  71551-4 0  9994
2 28893  98.2872 313.3059 0013325 239.9907 119.9973 14.64164599102095
SKYSAT-A                
1 39418U 13066C   26178.64065279  .00002601  00000+0  15024-3 0  9997
2 39418  97.3811 227.7046 0019644 278.4995  81.4010 15.13027728690063
SKYSAT-B                
1 40072U 14037D   26178.81680867  .00001266  00000+0  14451-3 0  9998
2 40072  98.3842 138.3879 0004300 236.1098 123.9708 14.88053149647543
SENTINEL-3A             
1 41335U 16011A   26178.94644026  .00000095  00000+0  57483-4 0  9998
2 41335  98.6246 246.1754 0001435  96.4602 263.6742 14.26735411539597
SKYSAT-C1               
1 41601U 16040C   26178.83263969  .00009064  00000+0  25672-3 0  9996
2 41601  96.9563 209.9760 0002392  36.3056 323.8351 15.36476123559501
SENTINEL-5P             
1 42969U 17064A   26178.84526093  .00000030  00000+0  35363-4 0  9995
2 42969  98.7926 120.9008 0001030  90.8726 269.2568 14.19520652451079
SENTINEL-3B             
1 43437U 18039A   26178.91958418  .00000101  00000+0  59666-4 0  9998
2 43437  98.6246 246.2978 0000768 109.6830 250.4433 14.26737598425659
SENTINEL-6A             
1 46984U 20086A   26178.85996259 -.00000077  00000+0 -67789-4 0  9990
2 46984  66.0409 112.8854 0007845 269.9918  90.0198 12.80929981261695
SENTINEL-6B             
1 66514U 25264A   26178.86031050 -.00000077  00000+0 -70238-4 0  9997
2 66514  66.0409 113.0107 0007934 268.9235  91.0871 12.80929988 28530
